STARLINK-4569           
1 53687U 22105AR  26068.63622850  .00002133  00000+0  15205-3 0  9997
2 53687  97.6053 311.1164 0002028  74.5680 285.5771 15.05631593193297
ION SCV-014             
1 62630U 25009X   26068.71776957  .00001812  00000+0  13229-3 0  9995
2 62630  97.4923 144.8636 0006450 112.6479 247.5430 15.04884649 63025
